{
    "links": {
        "self": "http://www.neowsapp.com/rest/v1/neo/3942355?api_key=iIulBulltgU6a56xZRHN4H3l9WmuAYTsLGpBGhQ2"
    },
    "id": "3942355",
    "neo_reference_id": "3942355",
    "name": "(2019 YB)",
    "designation": "2019 YB",
    "nasa_jpl_url": "http://ssd.jpl.nasa.gov/sbdb.cgi?sstr=3942355",
    "absolute_magnitude_h": 29.7,
    "estimated_diameter": {
        "kilometers": {
            "estimated_diameter_min": 0.0030517923,
            "estimated_diameter_max": 0.0068240151
        },
        "meters": {
            "estimated_diameter_min": 3.0517923259,
            "estimated_diameter_max": 6.824015094
        },
        "miles": {
            "estimated_diameter_min": 0.0018962952,
            "estimated_diameter_max": 0.0042402451
        },
        "feet": {
            "estimated_diameter_min": 10.0124423346,
            "estimated_diameter_max": 22.388501681
        }
    },
    "is_potentially_hazardous_asteroid": false,
    "close_approach_data": [
        {
            "close_approach_date": "2019-12-18",
            "close_approach_date_full": "2019-Dec-18 00:12",
            "epoch_date_close_approach": 1576627920000,
            "relative_velocity": {
                "kilometers_per_second": "12.8043617999",
                "kilometers_per_hour": "46095.7024796389",
                "miles_per_hour": "28642.0769101956"
            },
            "miss_distance": {
                "astronomical": "0.0011293261",
                "lunar": "0.4393078529",
                "kilometers": "168944.779095407",
                "miles": "104977.4178623366"
            },
            "orbiting_body": "Earth"
        },
        {
            "close_approach_date": "2019-12-18",
            "close_approach_date_full": "2019-Dec-18 02:12",
            "epoch_date_close_approach": 1576635120000,
            "relative_velocity": {
                "kilometers_per_second": "11.7572320605",
                "kilometers_per_hour": "42326.0354178252",
                "miles_per_hour": "26299.7523961481"
            },
            "miss_distance": {
                "astronomical": "0.0016612688",
                "lunar": "0.6462335632",
                "kilometers": "248522.273977456",
                "miles": "154424.5802866528"
            },
            "orbiting_body": "Moon"
        }
    ],
    "orbital_data": {
        "orbit_id": "1",
        "orbit_determination_date": "2019-12-20 07:55:27",
        "first_observation_date": "2019-12-17",
        "last_observation_date": "2019-12-17",
        "data_arc_in_days": null,
        "observations_used": 11,
        "orbit_uncertainty": "8",
        "minimum_orbit_intersection": ".000786778",
        "jupiter_tisserand_invariant": "3.141",
        "epoch_osculation": "2458834.5",
        "eccentricity": ".6487417355666907",
        "semi_major_axis": "2.492462840596111",
        "inclination": "1.093632889242515",
        "ascending_node_longitude": "83.35425086123196",
        "orbital_period": "1437.280274438999",
        "perihelion_distance": ".8754981715523059",
        "perihelion_argument": "46.22260698666009",
        "aphelion_distance": "4.109427509639915",
        "perihelion_time": "2458866.410119421271",
        "mean_anomaly": "352.0073744864122",
        "mean_motion": ".2504730680594052",
        "equinox": "J2000",
        "orbit_class": {
            "orbit_class_type": "APO",
            "orbit_class_description": "Near-Earth asteroid orbits which cross the Earth’s orbit similar to that of 1862 Apollo",
            "orbit_class_range": "a (semi-major axis) > 1.0 AU; q (perihelion) < 1.017 AU"
        }
    },
    "is_sentry_object": false
}